{
  "links" : {
    "next" : "https://api.nasa.gov/neo/rest/v1/feed?start_date=2001-04-23&end_date=2001-04-23&detailed=true&api_key=t0TVs3DtDT2H8Oy2Zy8m2eVrNsAVKAexjcZXUckd",
    "prev" : "https://api.nasa.gov/neo/rest/v1/feed?start_date=2001-04-21&end_date=2001-04-21&detailed=true&api_key=t0TVs3DtDT2H8Oy2Zy8m2eVrNsAVKAexjcZXUckd",
    "self" : "https://api.nasa.gov/neo/rest/v1/feed?start_date=2001-04-22&end_date=2001-04-22&detailed=true&api_key=t0TVs3DtDT2H8Oy2Zy8m2eVrNsAVKAexjcZXUckd"
  },
  "element_count" : 4,
  "near_earth_objects" : {
    "2001-04-22" : [ {
      "links" : {
        "self" : "https://api.nasa.gov/neo/rest/v1/neo/3580319?api_key=t0TVs3DtDT2H8Oy2Zy8m2eVrNsAVKAexjcZXUckd"
      },
      "neo_reference_id" : "3580319",
      "name" : "(2011 SG189)",
      "nasa_jpl_url" : "http://ssd.jpl.nasa.gov/sbdb.cgi?sstr=3580319",
      "absolute_magnitude_h" : 20.3,
      "estimated_diameter" : {
        "kilometers" : {
          "estimated_diameter_min" : 0.2315021222,
          "estimated_diameter_max" : 0.5176544822
        },
        "meters" : {
          "estimated_diameter_min" : 231.5021222103,
          "estimated_diameter_max" : 517.6544821978
        },
        "miles" : {
          "estimated_diameter_min" : 0.1438487052,
          "estimated_diameter_max" : 0.3216554833
        },
        "feet" : {
          "estimated_diameter_min" : 759.5214226325,
          "estimated_diameter_max" : 1698.3415313737
        }
      },
      "is_potentially_hazardous_asteroid" : false,
      "close_approach_data" : [ {
        "close_approach_date" : "2001-04-22",
        "epoch_date_close_approach" : 987922800000,
        "relative_velocity" : {
          "kilometers_per_second" : "27.4249183304",
          "kilometers_per_hour" : "98729.7059895926",
          "miles_per_hour" : "61346.7998133666"
        },
        "miss_distance" : {
          "astronomical" : "0.3988877203",
          "lunar" : "155.1673278809",
          "kilometers" : "59672756",
          "miles" : "37078932"
        },
        "orbiting_body" : "Earth"
      } ],
      "orbital_data" : {
        "orbit_id" : "7",
        "orbit_determination_date" : "2017-04-06 08:52:37",
        "orbit_uncertainty" : "6",
        "minimum_orbit_intersection" : ".236907",
        "jupiter_tisserand_invariant" : "3.158",
        "epoch_osculation" : "2458000.5",
        "eccentricity" : ".6032792958813554",
        "semi_major_axis" : "2.239967798941907",
        "inclination" : "37.06625607872009",
        "ascending_node_longitude" : "20.64987822550829",
        "orbital_period" : "1224.506485073611",
        "perihelion_distance" : ".888641602399324",
        "perihelion_argument" : "276.4662814863633",
        "aphelion_distance" : "3.591293995484491",
        "perihelion_time" : "2458202.185397830804",
        "mean_anomaly" : "300.7053011934643",
        "mean_motion" : ".2939959929884394",
        "equinox" : "J2000"
      }
    }, {
      "links" : {
        "self" : "https://api.nasa.gov/neo/rest/v1/neo/3065518?api_key=t0TVs3DtDT2H8Oy2Zy8m2eVrNsAVKAexjcZXUckd"
      },
      "neo_reference_id" : "3065518",
      "name" : "(2000 UY33)",
      "nasa_jpl_url" : "http://ssd.jpl.nasa.gov/sbdb.cgi?sstr=3065518",
      "absolute_magnitude_h" : 22.3,
      "estimated_diameter" : {
        "kilometers" : {
          "estimated_diameter_min" : 0.0921626549,
          "estimated_diameter_max" : 0.2060819612
        },
        "meters" : {
          "estimated_diameter_min" : 92.1626548503,
          "estimated_diameter_max" : 206.0819612321
        },
        "miles" : {
          "estimated_diameter_min" : 0.057267201,
          "estimated_diameter_max" : 0.1280533543
        },
        "feet" : {
          "estimated_diameter_min" : 302.370924539,
          "estimated_diameter_max" : 676.1219416887
        }
      },
      "is_potentially_hazardous_asteroid" : false,
      "close_approach_data" : [ {
        "close_approach_date" : "2001-04-22",
        "epoch_date_close_approach" : 987922800000,
        "relative_velocity" : {
          "kilometers_per_second" : "16.5995378864",
          "kilometers_per_hour" : "59758.3363908618",
          "miles_per_hour" : "37131.5062979774"
        },
        "miss_distance" : {
          "astronomical" : "0.3870332643",
          "lunar" : "150.5559387207",
          "kilometers" : "57899352",
          "miles" : "35976988"
        },
        "orbiting_body" : "Earth"
      } ],
      "orbital_data" : {
        "orbit_id" : "15",
        "orbit_determination_date" : "2017-04-06 09:16:44",
        "orbit_uncertainty" : "1",
        "minimum_orbit_intersection" : ".118813",
        "jupiter_tisserand_invariant" : "5.463",
        "epoch_osculation" : "2458000.5",
        "eccentricity" : ".05429070102708548",
        "semi_major_axis" : "1.124029659732631",
        "inclination" : "26.03711827840457",
        "ascending_node_longitude" : "37.43875182706679",
        "orbital_period" : "435.2763623983943",
        "perihelion_distance" : "1.06300530153051",
        "perihelion_argument" : "81.43757778034959",
        "aphelion_distance" : "1.185054017934752",
        "perihelion_time" : "2458034.580941323348",
        "mean_anomaly" : "331.8129906967569",
        "mean_motion" : ".8270607620785613",
        "equinox" : "J2000"
      }
    }, {
      "links" : {
        "self" : "https://api.nasa.gov/neo/rest/v1/neo/3599541?api_key=t0TVs3DtDT2H8Oy2Zy8m2eVrNsAVKAexjcZXUckd"
      },
      "neo_reference_id" : "3599541",
      "name" : "(2012 DO8)",
      "nasa_jpl_url" : "http://ssd.jpl.nasa.gov/sbdb.cgi?sstr=3599541",
      "absolute_magnitude_h" : 22.4,
      "estimated_diameter" : {
        "kilometers" : {
          "estimated_diameter_min" : 0.0880146521,
          "estimated_diameter_max" : 0.1968067451
        },
        "meters" : {
          "estimated_diameter_min" : 88.0146520901,
          "estimated_diameter_max" : 196.8067450894
        },
        "miles" : {
          "estimated_diameter_min" : 0.0546897524,
          "estimated_diameter_max" : 0.122290004
        },
        "feet" : {
          "estimated_diameter_min" : 288.7619911632,
          "estimated_diameter_max" : 645.6914415591
        }
      },
      "is_potentially_hazardous_asteroid" : false,
      "close_approach_data" : [ {
        "close_approach_date" : "2001-04-22",
        "epoch_date_close_approach" : 987922800000,
        "relative_velocity" : {
          "kilometers_per_second" : "7.1906808111",
          "kilometers_per_hour" : "25886.4509199483",
          "miles_per_hour" : "16084.8339063423"
        },
        "miss_distance" : {
          "astronomical" : "0.1272533826",
          "lunar" : "49.5015678406",
          "kilometers" : "19036836",
          "miles" : "11828941"
        },
        "orbiting_body" : "Earth"
      } ],
      "orbital_data" : {
        "orbit_id" : "21",
        "orbit_determination_date" : "2017-04-06 08:50:53",
        "orbit_uncertainty" : "4",
        "minimum_orbit_intersection" : ".125694",
        "jupiter_tisserand_invariant" : "6.316",
        "epoch_osculation" : "2458000.5",
        "eccentricity" : ".2458274577224918",
        "semi_major_axis" : ".9463352470386508",
        "inclination" : "8.77528163921647",
        "ascending_node_longitude" : "347.4327176234721",
        "orbital_period" : "336.2528321458882",
        "perihelion_distance" : ".713700059105953",
        "perihelion_argument" : "356.9643948238835",
        "aphelion_distance" : "1.178970434971349",
        "perihelion_time" : "2457834.385809088967",
        "mean_anomaly" : "177.8456655556921",
        "mean_motion" : "1.070622952682845",
        "equinox" : "J2000"
      }
    }, {
      "links" : {
        "self" : "https://api.nasa.gov/neo/rest/v1/neo/3745502?api_key=t0TVs3DtDT2H8Oy2Zy8m2eVrNsAVKAexjcZXUckd"
      },
      "neo_reference_id" : "3745502",
      "name" : "(2016 EZ27)",
      "nasa_jpl_url" : "http://ssd.jpl.nasa.gov/sbdb.cgi?sstr=3745502",
      "absolute_magnitude_h" : 19.5,
      "estimated_diameter" : {
        "kilometers" : {
          "estimated_diameter_min" : 0.3346223745,
          "estimated_diameter_max" : 0.7482383761
        },
        "meters" : {
          "estimated_diameter_min" : 334.6223744549,
          "estimated_diameter_max" : 748.2383760735
        },
        "miles" : {
          "estimated_diameter_min" : 0.2079246394,
          "estimated_diameter_max" : 0.464933628
        },
        "feet" : {
          "estimated_diameter_min" : 1097.8424710066,
          "estimated_diameter_max" : 2454.8503937571
        }
      },
      "is_potentially_hazardous_asteroid" : false,
      "close_approach_data" : [ {
        "close_approach_date" : "2001-04-22",
        "epoch_date_close_approach" : 987922800000,
        "relative_velocity" : {
          "kilometers_per_second" : "23.0057681018",
          "kilometers_per_hour" : "82820.7651664336",
          "miles_per_hour" : "51461.6026668876"
        },
        "miss_distance" : {
          "astronomical" : "0.4736714049",
          "lunar" : "184.2581787109",
          "kilometers" : "70860232",
          "miles" : "44030508"
        },
        "orbiting_body" : "Earth"
      } ],
      "orbital_data" : {
        "orbit_id" : "15",
        "orbit_determination_date" : "2017-04-06 08:27:48",
        "orbit_uncertainty" : "4",
        "minimum_orbit_intersection" : ".329278",
        "jupiter_tisserand_invariant" : "4.495",
        "epoch_osculation" : "2458000.5",
        "eccentricity" : ".5208238316568933",
        "semi_major_axis" : "1.414472799561945",
        "inclination" : "23.483445895544",
        "ascending_node_longitude" : "316.313114078946",
        "orbital_period" : "614.4553464097589",
        "perihelion_distance" : ".6777816563196398",
        "perihelion_argument" : "354.3117210105721",
        "aphelion_distance" : "2.151163942804249",
        "perihelion_time" : "2458217.127442317880",
        "mean_anomaly" : "233.0812911139833",
        "mean_motion" : ".5858847223048305",
        "equinox" : "J2000"
      }
    } ]
  }
}